ORBCOMM FM103 [+]       
1 40091U 14040F   24006.29389759  .00000758  00000+0  20748-3 0  9990
2 40091  47.0077 346.8440 0002135 353.5677   6.5180 14.56185736487114
ORBCOMM FM114 [+]       
1 41179U 15081A   24006.67133249 -.00001639  00000+0 -33001-3 0  9994
2 41179  47.0076 254.3899 0000664  86.6746 273.4215 14.56176594427534
ORBCOMM FM119 [-]       
1 41180U 15081B   24006.77706581  .00000719  00000+0  19886-3 0  9993
2 41180  46.9996 163.0839 0001652 181.6358 178.4521 14.56174725428807
ORBCOMM FM105 [-]       
1 41181U 15081C   24006.67566989  .00000378  00000+0  15465-3 0  9999
2 41181  47.0017 119.1498 0001402 142.6491 217.4486 14.44170240424473
ORBCOMM FM110 [+]       
1 41182U 15081D   24007.05991385  .00000611  00000+0  17457-3 0  9998
2 41182  47.0013 251.9795 0002046 275.5715  84.4937 14.56177379427643
ORBCOMM FM118 [+]       
1 41183U 15081E   24007.03718135  .00000802  00000+0  21736-3 0  9994
2 41183  47.0032 252.3679 0002238 272.7815  87.2813 14.56181900427643
ORBCOMM FM112 [+]       
1 41184U 15081F   24006.54921787  .00000963  00000+0  25352-3 0  9995
2 41184  46.9980 163.4002 0001199 167.8857 192.2057 14.56158621428711
ORBCOMM FM113 [+]       
1 41185U 15081G   24006.80043114  .00000916  00000+0  24288-3 0  9999
2 41185  46.9992 162.4598 0001487 192.7934 167.2914 14.56177705428737
